$$SOE
2460714.500000000, A.D. 2025-Feb-08 00:00:00.0000, 4.118117023556654E+08, -1.312626060513655E+07, 9.424167494349062E+06,
2460721.500000000, A.D. 2025-Feb-15 00:00:00.0000, 4.102078768116446E+08, -2.209930536872677E+06, 1.181558480398332E+07,
2460728.500000000, A.D. 2025-Feb-22 00:00:00.0000, 4.083159288595920E+08, 8.707907888069656E+06, 1.419869844063159E+07,
2460735.500000000, A.D. 2025-Mar-01 00:00:00.0000, 4.061335351028734E+08, 1.961950973125784E+07, 1.657170717996395E+07,
2460742.500000000, A.D. 2025-Mar-08 00:00:00.0000, 4.036585923059082E+08, 3.051693793740443E+07, 1.893277329688894E+07,
2460749.500000000, A.D. 2025-Mar-15 00:00:00.0000, 4.008892309155759E+08, 4.139206948444617E+07, 2.128002409144657E+07,
2460756.500000000, A.D. 2025-Mar-22 00:00:00.0000, 3.978238265578626E+08, 5.223660098870869E+07, 2.361155370254026E+07,
2460763.500000000, A.D. 2025-Mar-29 00:00:00.0000, 3.944610130343718E+08, 6.304205296553440E+07, 2.592542482059959E+07,
2460770.500000000, A.D. 2025-Apr-05 00:00:00.0000, 3.907996970815762E+08, 7.379977592587055E+07, 2.821967053278731E+07,
2460777.500000000, A.D. 2025-Apr-12 00:00:00.0000, 3.868390729004964E+08, 8.450095845336080E+07, 3.049229649239512E+07,
2460784.500000000, A.D. 2025-Apr-19 00:00:00.0000, 3.825786361983417E+08, 9.513663641696519E+07, 3.274128336318998E+07,
2460791.500000000, A.D. 2025-Apr-26 00:00:00.0000, 3.780181979363162E+08, 1.056977031477345E+08, 3.496458950162227E+07,
2460798.500000000, A.D. 2025-May-03 00:00:00.0000, 3.731578978137268E+08, 1.161749206253725E+08, 3.716015387112385E+07,
2460805.500000000, A.D. 2025-May-10 00:00:00.0000, 3.679982174278232E+08, 1.265589317037680E+08, 3.932589918821307E+07,
2460812.500000000, A.D. 2025-May-17 00:00:00.0000, 3.625399930519643E+08, 1.368402733482710E+08, 4.145973529375090E+07,
2460819.500000000, A.D. 2025-May-24 00:00:00.0000, 3.567844281078100E+08, 1.470093908362272E+08, 4.355956272731140E+07,
2460826.500000000, A.D. 2025-May-31 00:00:00.0000, 3.507331056468294E+08, 1.570566532278708E+08, 4.562327648786569E+07,
2460833.500000000, A.D. 2025-Jun-07 00:00:00.0000, 3.443880003307757E+08, 1.669723712983733E+08, 4.764877010910472E+07,
2460840.500000000, A.D. 2025-Jun-14 00:00:00.0000, 3.377514874344633E+08, 1.767468172447260E+08, 4.963394020344096E+07,
2460847.500000000, A.D. 2025-Jun-21 00:00:00.0000, 3.308263499817438E+08, 1.863702428667755E+08, 5.157669108668140E+07,
2460854.500000000, A.D. 2025-Jun-28 00:00:00.0000, 3.236157870344942E+08, 1.958328979411151E+08, 5.347493932759351E+07,
2460861.500000000, A.D. 2025-Jul-05 00:00:00.0000, 3.161234215053870E+08, 2.051250508876992E+08, 5.532661852140080E+07,
2460868.500000000, A.D. 2025-Jul-12 00:00:00.0000, 3.083533061949281E+08, 2.142370108575783E+08, 5.712968431263603E+07,
2460875.500000000, A.D. 2025-Jul-19 00:00:00.0000, 3.003099281392339E+08, 2.231591505880997E+08, 5.888211958277777E+07,
2460882.500000000, A.D. 2025-Jul-26 00:00:00.0000, 2.919982113808919E+08, 2.318819298773402E+08, 6.058193975600074E+07,
2460889.500000000, A.D. 2025-Aug-02 00:00:00.0000, 2.834235181370602E+08, 2.403959195944818E+08, 6.222719819312531E+07,
2460896.500000000, A.D. 2025-Aug-09 00:00:00.0000, 2.745916483039066E+08, 2.486918260936477E+08, 6.381599164151758E+07,
2460903.500000000, A.D. 2025-Aug-16 00:00:00.0000, 2.655088372975774E+08, 2.567605158390535E+08, 6.534646569672120E+07,
2460910.500000000, A.D. 2025-Aug-23 00:00:00.0000, 2.561817524575621E+08, 2.645930401212369E+08, 6.681682021645616E+07,
2460917.500000000, A.D. 2025-Aug-30 00:00:00.0000, 2.466174882890077E+08, 2.721806604350528E+08, 6.822531468073656E+07,
2460924.500000000, A.D. 2025-Sep-06 00:00:00.0000, 2.368235590877004E+08, 2.795148753671759E+08, 6.957027367440689E+07,
2460931.500000000, A.D. 2025-Sep-13 00:00:00.0000, 2.268078872527171E+08, 2.865874463545563E+08, 7.085009240764765E+07,
2460938.500000000, A.D. 2025-Sep-20 00:00:00.0000, 2.165787905611842E+08, 2.933904205132818E+08, 7.206324180757456E+07,
2460945.500000000, A.D. 2025-Sep-27 00:00:00.0000, 2.061449694833711E+08, 2.999161534818293E+08, 7.320827330271159E+07,
2460952.500000000, A.D. 2025-Oct-04 00:00:00.0000, 1.955154925513720E+08, 3.061573326463133E+08, 7.428382349181499E+07,
2460959.500000000, A.D. 2025-Oct-11 00:00:00.0000, 1.846997794544708E+08, 3.121069996370220E+08, 7.528861861797945E+07,
2460966.500000000, A.D. 2025-Oct-18 00:00:00.0000, 1.737075822104635E+08, 3.177585716586040E+08, 7.622147876492459E+07,
2460973.500000000, A.D. 2025-Oct-25 00:00:00.0000, 1.625489646361948E+08, 3.231058615074730E+08, 7.708132173074658E+07,
2460980.500000000, A.D. 2025-Nov-01 00:00:00.0000, 1.512342802579530E+08, 3.281430961422271E+08, 7.786716654625268E+07,
2460987.500000000, A.D. 2025-Nov-08 00:00:00.0000, 1.397741488141320E+08, 3.328649336356792E+08, 7.857813660430337E+07,
2460994.500000000, A.D. 2025-Nov-15 00:00:00.0000, 1.281794316313144E+08, 3.372664783216086E+08, 7.921346235703549E+07,
2461001.500000000, A.D. 2025-Nov-22 00:00:00.0000, 1.164612064239700E+08, 3.413432942420367E+08, 7.977248354081979E+07,
2461008.500000000, A.D. 2025-Nov-29 00:00:00.0000, 1.046307415261317E+08, 3.450914179310458E+08, 8.025465101822057E+07,
2461015.500000000, A.D. 2025-Dec-06 00:00:00.0000, 9.269946744974829E+07, 3.485073703109941E+08, 8.065952841871318E+07,
2461022.500000000, A.D. 2025-Dec-13 00:00:00.0000, 8.067894637598278E+07, 3.515881642582704E+08, 8.098679325014335E+07,
2461029.500000000, A.D. 2025-Dec-20 00:00:00.0000, 6.858084325265794E+07, 3.543313088188058E+08, 8.123623724000187E+07,
2461036.500000000, A.D. 2025-Dec-27 00:00:00.0000, 5.641689761373696E+07, 3.567348126388910E+08, 8.140776621636035E+07,
2461043.500000000, A.D. 2026-Jan-03 00:00:00.0000, 4.419889484915983E+07, 3.587971859848683E+08, 8.150139961469389E+07,
2461050.500000000, A.D. 2026-Jan-10 00:00:00.0000, 3.193863722023979E+07, 3.605174406835880E+08, 8.151726955348292E+07,
2461057.500000000, A.D. 2026-Jan-17 00:00:00.0000, 1.964791503679686E+07, 3.618950879231441E+08, 8.145561946312967E+07,
2461064.500000000, A.D. 2026-Jan-24 00:00:00.0000, 7.338478253042589E+06, 3.629301339854767E+08, 8.131680227998136E+07,
2461071.500000000, A.D. 2026-Jan-31 00:00:00.0000, -4.977991322651085E+06, 3.636230739687589E+08, 8.110127822288227E+07,
2461078.500000000, A.D. 2026-Feb-07 00:00:00.0000, -1.728990698073954E+07, 3.639748835227317E+08, 8.080961216484685E+07,
2461085.500000000, A.D. 2026-Feb-14 00:00:00.0000, -2.958580282328361E+07, 3.639870086762659E+08, 8.044247060087807E+07,
2461092.500000000, A.D. 2026-Feb-21 00:00:00.0000, -4.185435771277450E+07, 3.636613544422778E+08, 8.000061825168642E+07,
2461099.500000000, A.D. 2026-Feb-28 00:00:00.0000, -5.408441841904376E+07, 3.630002734748364E+08, 7.948491452782629E+07,
2461106.500000000, A.D. 2026-Mar-07 00:00:00.0000, -6.626502391157641E+07, 3.620065529557630E+08, 7.889630991458888E+07,
2461113.500000000, A.D. 2026-Mar-14 00:00:00.0000, -7.838542793006012E+07, 3.606833975061046E+08, 7.823584186312504E+07,
2461120.500000000, A.D. 2026-Mar-21 00:00:00.0000, -9.043511797928980E+07, 3.590344111631421E+08, 7.750463029610962E+07,
2461127.500000000, A.D. 2026-Mar-28 00:00:00.0000, -1.024038326968135E+08, 3.570635796009430E+08, 7.670387303171979E+07,
2461134.500000000, A.D. 2026-Apr-04 00:00:00.0000, -1.142815781512825E+08, 3.547752517742509E+08, 7.583484113590321E+07,
2461141.500000000, A.D. 2026-Apr-11 00:00:00.0000, -1.260586427693080E+08, 3.521741207710872E+08, 7.489887418175718E+07,
2461148.500000000, A.D. 2026-Apr-18 00:00:00.0000, -1.377256107180065E+08, 3.492652040124767E+08, 7.389737543378551E+07,
2461155.500000000, A.D. 2026-Apr-25 00:00:00.0000, -1.492733736968237E+08, 3.460538229562577E+08, 7.283180698560123E+07,
2461162.500000000, A.D. 2026-May-02 00:00:00.0000, -1.606931411191689E+08, 3.425455824120904E+08, 7.170368487528050E+07,
2461169.500000000, A.D. 2026-May-09 00:00:00.0000, -1.719764485819152E+08, 3.387463495301784E+08, 7.051457418841431E+07,
2461176.500000000, A.D. 2026-May-16 00:00:00.0000, -1.831151642797895E+08, 3.346622327215438E+08, 6.926608415017496E+07,
2461183.500000000, A.D. 2026-May-23 00:00:00.0000, -1.941014933614585E+08, 3.302995616441909E+08, 6.795986330890873E+07,
2461190.500000000, A.D. 2026-May-30 00:00:00.0000, -2.049279823662559E+08, 3.256648686834682E+08, 6.659759505169024E+07,
2461197.500000000, A.D. 2026-Jun-06 00:00:00.0000, -2.155875241229519E+08, 3.207648687559879E+08, 6.518099323518752E+07,
2461204.500000000, A.D. 2026-Jun-13 00:00:00.0000, -2.260733595125782E+08, 3.156064377247831E+08, 6.371179763001691E+07,
2461211.500000000, A.D. 2026-Jun-20 00:00:00.0000, -2.363790766738382E+08, 3.101965924344073E+08, 6.219176948037741E+07,
2461218.500000000, A.D. 2026-Jun-27 00:00:00.0000, -2.464986094275900E+08, 3.045424721025997E+08, 6.062268732098675E+07,
2461225.500000000, A.D. 2026-Jul-04 00:00:00.0000, -2.564262349982699E+08, 2.986513203559956E+08, 5.900634299840826E+07,
2461232.500000000, A.D. 2026-Jul-11 00:00:00.0000, -2.661565708590487E+08, 2.925304678287423E+08, 5.734453787094200E+07,
2461239.500000000, A.D. 2026-Jul-18 00:00:00.0000, -2.756845706906500E+08, 2.861873153919231E+08, 5.563907918733563E+07,
2461246.500000000, A.D. 2026-Jul-25 00:00:00.0000, -2.850055195122690E+08, 2.796293180507031E+08, 5.389177664737090E+07,
2461253.500000000, A.D. 2026-Aug-01 00:00:00.0000, -2.941150280184919E+08, 2.728639694875217E+08, 5.210443913946250E+07,
2461260.500000000, A.D. 2026-Aug-08 00:00:00.0000, -3.030090259876314E+08, 2.658987872344000E+08, 5.027887163457812E+07,
2461267.500000000, A.D. 2026-Aug-15 00:00:00.0000, -3.116837544245510E+08, 2.587412989365116E+08, 4.841687223573321E+07,
2461274.500000000, A.D. 2026-Aug-22 00:00:00.0000, -3.201357572754218E+08, 2.513990309336915E+08, 4.652022955198193E+07,
2461281.500000000, A.D. 2026-Aug-29 00:00:00.0000, -3.283618750781412E+08, 2.438794977886299E+08, 4.459072049301514E+07,
$$EOE